{
  "type": "FeatureCollection",
  "crs": { "type": "name", "properties": { "name": "EPSG:4326" } },
  "features": [
    { "type": "Feature", "properties": { "nombre": "Parque Principal de Bello", "municipio": "Bello", "categoria": "musica", "tipo": "Plaza central con música en vivo y eventos", "direccion": "Cra. 50 #50-01, Prado" }, "geometry": { "type": "Point", "coordinates": [-75.5584404, 6.3349726] } },
    { "type": "Feature", "properties": { "nombre": "Polideportivo Tulio Ospina", "municipio": "Bello", "categoria": "deportivo", "tipo": "Parque deportivo con canchas y ciclovía", "direccion": "Av. 42A #49-20, Panamericano" }, "geometry": { "type": "Point", "coordinates": [-75.5482405, 6.3349242] } },
    { "type": "Feature", "properties": { "nombre": "Centro Comercial Puerta del Norte", "municipio": "Bello", "categoria": "familiar", "tipo": "Centro comercial con zona infantil", "direccion": "Autopista Norte #34-67" }, "geometry": { "type": "Point", "coordinates": [-75.5430007, 6.339319] } },
    { "type": "Feature", "properties": { "nombre": "Estación Niquía (Metro)", "municipio": "Bello", "categoria": "otros", "tipo": "Estación de transporte masivo", "direccion": "Hermosa Provincia" }, "geometry": { "type": "Point", "coordinates": [-75.5443006, 6.3378168] } },
    { "type": "Feature", "properties": { "nombre": "Parque Principal de Copacabana", "municipio": "Copacabana", "categoria": "familiar", "tipo": "Plaza principal con eventos culturales", "direccion": "Cl. 50 #50-20" }, "geometry": { "type": "Point", "coordinates": [-75.5108, 6.3468] } },
    { "type": "Feature", "properties": { "nombre": "La Macarena", "municipio": "Medellín", "categoria": "musica", "tipo": "Recinto de conciertos (antigua plaza de toros)", "direccion": "Cra. 63A #45A-48" }, "geometry": { "type": "Point", "coordinates": [-75.5802323, 6.2494542] } },
    { "type": "Feature", "properties": { "nombre": "Teatro Metropolitano de Medellín", "municipio": "Medellín", "categoria": "musica", "tipo": "Teatro y sala de conciertos", "direccion": "Cl. 41 #57-30" }, "geometry": { "type": "Point", "coordinates": [-75.5774573, 6.2430224] } },
    { "type": "Feature", "properties": { "nombre": "Estadio Atanasio Girardot", "municipio": "Medellín", "categoria": "deportivo", "tipo": "Complejo deportivo y estadio de fútbol", "direccion": "Cra. 74 #48-010" }, "geometry": { "type": "Point", "coordinates": [-75.5901729, 6.256767] } },
    { "type": "Feature", "properties": { "nombre": "Iván de Bedout Arena", "municipio": "Medellín", "categoria": "deportivo", "tipo": "Complejo deportivo multipropósito", "direccion": "Cra. 70 #48-193" }, "geometry": { "type": "Point", "coordinates": [-75.5879098, 6.2562478] } },
    { "type": "Feature", "properties": { "nombre": "Parque Explora", "municipio": "Medellín", "categoria": "familiar", "tipo": "Museo interactivo y acuario", "direccion": "Cra. 52 #73-75" }, "geometry": { "type": "Point", "coordinates": [-75.5656966, 6.2708025] } },
    { "type": "Feature", "properties": { "nombre": "Jardín Botánico de Medellín", "municipio": "Medellín", "categoria": "familiar", "tipo": "Jardín botánico y parque familiar", "direccion": "Cl. 73 #51D-14" }, "geometry": { "type": "Point", "coordinates": [-75.5648496, 6.2693605] } },
    { "type": "Feature", "properties": { "nombre": "Plaza Mayor Medellín", "municipio": "Medellín", "categoria": "otros", "tipo": "Centro de convenciones y ferias", "direccion": "Cl. 41 #55-80" }, "geometry": { "type": "Point", "coordinates": [-75.575787, 6.2431811] } },
    { "type": "Feature", "properties": { "nombre": "Terminal del Norte", "municipio": "Medellín", "categoria": "otros", "tipo": "Terminal de transporte intermunicipal", "direccion": "Autonorte, Castilla" }, "geometry": { "type": "Point", "coordinates": [-75.5719863, 6.2779398] } },
    { "type": "Feature", "properties": { "nombre": "Museo de Arte Moderno (MAMM)", "municipio": "Medellín", "categoria": "otros", "tipo": "Museo y espacio de exposiciones", "direccion": "Cra. 44 #19A-100" }, "geometry": { "type": "Point", "coordinates": [-75.57384, 6.2237797] } },
    { "type": "Feature", "properties": { "nombre": "Plaza Botero / Museo de Antioquia", "municipio": "Medellín", "categoria": "otros", "tipo": "Esculturas al aire libre y eventos culturales", "direccion": "Cl. 52 #52-43" }, "geometry": { "type": "Point", "coordinates": [-75.5682, 6.2518] } },
    { "type": "Feature", "properties": { "nombre": "Pueblito Paisa - Cerro Nutibara", "municipio": "Medellín", "categoria": "familiar", "tipo": "Mirador turístico y eventos tradicionales", "direccion": "Calle 30A #55-64" }, "geometry": { "type": "Point", "coordinates": [-75.5806, 6.2361] } },
    { "type": "Feature", "properties": { "nombre": "Parques del Río", "municipio": "Medellín", "categoria": "familiar", "tipo": "Parque lineal, festivales y zonas verdes", "direccion": "Cra. 62 con Cl. 43" }, "geometry": { "type": "Point", "coordinates": [-75.5772, 6.2461] } },
    { "type": "Feature", "properties": { "nombre": "Teatro Pablo Tobón Uribe", "municipio": "Medellín", "categoria": "musica", "tipo": "Teatro cultural y conciertos al aire libre", "direccion": "Cra. 40 #51-24" }, "geometry": { "type": "Point", "coordinates": [-75.5585, 6.2472] } },
    { "type": "Feature", "properties": { "nombre": "Parque Lleras", "municipio": "Medellín", "categoria": "musica", "tipo": "Zona de rumba, bares y música en vivo", "direccion": "El Poblado" }, "geometry": { "type": "Point", "coordinates": [-75.5679567, 6.2089814] } },
    { "type": "Feature", "properties": { "nombre": "Parque de El Poblado", "municipio": "Medellín", "categoria": "musica", "tipo": "Plaza pública urbana y gastronomía", "direccion": "Cl. 10 #43E-11" }, "geometry": { "type": "Point", "coordinates": [-75.5714, 6.2102] } },
    { "type": "Feature", "properties": { "nombre": "Parque de Boston", "municipio": "Medellín", "categoria": "musica", "tipo": "Parque de barrio con música y eventos", "direccion": "Cra. 38 #54-97" }, "geometry": { "type": "Point", "coordinates": [-75.5576228, 6.248071] } },
    { "type": "Feature", "properties": { "nombre": "Unidad Deportiva de Belén", "municipio": "Medellín", "categoria": "deportivo", "tipo": "Unidad deportiva con canchas múltiples", "direccion": "Belén" }, "geometry": { "type": "Point", "coordinates": [-75.5885217, 6.2355882] } },
    { "type": "Feature", "properties": { "nombre": "Centro Comercial Santafé", "municipio": "Medellín", "categoria": "familiar", "tipo": "Centro comercial con cine y eventos", "direccion": "Cra. 43A, Cl. 7 Sur" }, "geometry": { "type": "Point", "coordinates": [-75.574351, 6.196852] } },
    { "type": "Feature", "properties": { "nombre": "El Tesoro Parque Comercial", "municipio": "Medellín", "categoria": "familiar", "tipo": "Centro comercial con parque de diversiones", "direccion": "Loma El Tesoro" }, "geometry": { "type": "Point", "coordinates": [-75.5602, 6.1972] } },
    { "type": "Feature", "properties": { "nombre": "Segundo Parque de Laureles", "municipio": "Medellín", "categoria": "familiar", "tipo": "Parque de barrio con eventos comunitarios", "direccion": "Laureles" }, "geometry": { "type": "Point", "coordinates": [-75.596902, 6.2447431] } },
    { "type": "Feature", "properties": { "nombre": "Comuna 13 - Escaleras Eléctricas", "municipio": "Medellín", "categoria": "familiar", "tipo": "Recorrido turístico y arte urbano", "direccion": "Cra. 108B, San Javier" }, "geometry": { "type": "Point", "coordinates": [-75.6218586, 6.2484464] } },
    { "type": "Feature", "properties": { "nombre": "Robledo Park", "municipio": "Medellín", "categoria": "familiar", "tipo": "Parque de barrio con actividades", "direccion": "Cra. 86 #65-10" }, "geometry": { "type": "Point", "coordinates": [-75.5962634, 6.2759539] } },
    { "type": "Feature", "properties": { "nombre": "Universidad Nacional sede Medellín", "municipio": "Medellín", "categoria": "otros", "tipo": "Campus universitario", "direccion": "Cra. 65 #59A-110" }, "geometry": { "type": "Point", "coordinates": [-75.5795067, 6.2607015] } },
    { "type": "Feature", "properties": { "nombre": "Parque Biblioteca España", "municipio": "Medellín", "categoria": "otros", "tipo": "Parque biblioteca y mirador", "direccion": "Santo Domingo Savio" }, "geometry": { "type": "Point", "coordinates": [-75.5441372, 6.2946578] } },
    { "type": "Feature", "properties": { "nombre": "Aeropuerto Olaya Herrera", "municipio": "Medellín", "categoria": "otros", "tipo": "Aeropuerto de vuelos nacionales", "direccion": "Cra. 65 #13-157" }, "geometry": { "type": "Point", "coordinates": [-75.5868332, 6.2190583] } },
    { "type": "Feature", "properties": { "nombre": "Parque Biblioteca La Ladera", "municipio": "Medellín", "categoria": "otros", "tipo": "Parque biblioteca comunitario", "direccion": "Cl 59A #36-30" }, "geometry": { "type": "Point", "coordinates": [-75.5537634, 6.2509783] } },
    { "type": "Feature", "properties": { "nombre": "Parque Arví", "municipio": "Medellín", "categoria": "familiar", "tipo": "Parque ecoturístico y feria de artesanías", "direccion": "Santa Elena" }, "geometry": { "type": "Point", "coordinates": [-75.5033, 6.2819] } },
    { "type": "Feature", "properties": { "nombre": "Parque San Antonio", "municipio": "Medellín", "categoria": "otros", "tipo": "Plaza pública y eventos artísticos", "direccion": "Cl. 46 #46-18" }, "geometry": { "type": "Point", "coordinates": [-75.5688, 6.2449] } },
    { "type": "Feature", "properties": { "nombre": "Casa de la Cultura de Itagüí", "municipio": "Itagüí", "categoria": "musica", "tipo": "Centro cultural con talleres de música", "direccion": "Cl. 36 #57-59" }, "geometry": { "type": "Point", "coordinates": [-75.6259299, 6.1692484] } },
    { "type": "Feature", "properties": { "nombre": "Acuaparque Ditaires", "municipio": "Itagüí", "categoria": "deportivo", "tipo": "Complejo deportivo acuático", "direccion": "Cl. 34B #53-57" }, "geometry": { "type": "Point", "coordinates": [-75.6281441, 6.169487] } },
    { "type": "Feature", "properties": { "nombre": "Polideportivo de Itagüí", "municipio": "Itagüí", "categoria": "deportivo", "tipo": "Polideportivo (fútbol y baloncesto)", "direccion": "Los Naranjos" }, "geometry": { "type": "Point", "coordinates": [-75.6059568, 6.1701787] } },
    { "type": "Feature", "properties": { "nombre": "Parque de Itagüí", "municipio": "Itagüí", "categoria": "familiar", "tipo": "Parque principal con fuente y eventos", "direccion": "Cl. 50 con Cra. 50" }, "geometry": { "type": "Point", "coordinates": [-75.6094196, 6.1722873] } },
    { "type": "Feature", "properties": { "nombre": "Alcaldía de Itagüí", "municipio": "Itagüí", "categoria": "otros", "tipo": "Sede administrativa municipal", "direccion": "Cl. 51 #51-55" }, "geometry": { "type": "Point", "coordinates": [-75.6087973, 6.1734547] } },
    { "type": "Feature", "properties": { "nombre": "Mall Suramérica", "municipio": "Itagüí", "categoria": "familiar", "tipo": "Centro comercial y gastronómico", "direccion": "Cra. 52D, Santa María" }, "geometry": { "type": "Point", "coordinates": [-75.6282213, 6.1613552] } },
    { "type": "Feature", "properties": { "nombre": "Casa de la Cultura Miguel Uribe Restrepo", "municipio": "Envigado", "categoria": "musica", "tipo": "Casa cultural con conciertos", "direccion": "Cra. 45 #34 Sur-65" }, "geometry": { "type": "Point", "coordinates": [-75.5886383, 6.1731371] } },
    { "type": "Feature", "properties": { "nombre": "Polideportivo Sur de Envigado", "municipio": "Envigado", "categoria": "deportivo", "tipo": "Polideportivo y gimnasio público", "direccion": "Cra. 48 #184-46" }, "geometry": { "type": "Point", "coordinates": [-75.6001177, 6.1652176] } },
    { "type": "Feature", "properties": { "nombre": "Unidad Deportiva de Envigado", "municipio": "Envigado", "categoria": "deportivo", "tipo": "Estadio y unidad deportiva", "direccion": "Zona 8" }, "geometry": { "type": "Point", "coordinates": [-75.6003173, 6.1651117] } },
    { "type": "Feature", "properties": { "nombre": "Parque Principal de Envigado", "municipio": "Envigado", "categoria": "familiar", "tipo": "Parque principal con eventos familiares", "direccion": "Cra. 42 #37S-60" }, "geometry": { "type": "Point", "coordinates": [-75.5873738, 6.170049] } },
    { "type": "Feature", "properties": { "nombre": "Parque Biblioteca Débora Arango", "municipio": "Envigado", "categoria": "familiar", "tipo": "Parque biblioteca y espacio cultural", "direccion": "Cl. 37 Sur #45B-27" }, "geometry": { "type": "Point", "coordinates": [-75.5910947, 6.1722747] } },
    { "type": "Feature", "properties": { "nombre": "Universidad EIA", "municipio": "Envigado", "categoria": "otros", "tipo": "Institución educativa universitaria", "direccion": "Vereda El Peñasco" }, "geometry": { "type": "Point", "coordinates": [-75.516863, 6.157042] } },
    { "type": "Feature", "properties": { "nombre": "Casa de la Cultura La Barquereña", "municipio": "Sabaneta", "categoria": "musica", "tipo": "Centro cultural con talleres de arte", "direccion": "Cl. 68 Sur #42-40" }, "geometry": { "type": "Point", "coordinates": [-75.6129507, 6.1504909] } },
    { "type": "Feature", "properties": { "nombre": "Coliseo Sabaneta Norte", "municipio": "Sabaneta", "categoria": "deportivo", "tipo": "Coliseo y cancha sintética", "direccion": "Las Vegas #48" }, "geometry": { "type": "Point", "coordinates": [-75.6110514, 6.1577666] } },
    { "type": "Feature", "properties": { "nombre": "Parque Principal de Sabaneta", "municipio": "Sabaneta", "categoria": "familiar", "tipo": "Parque principal y gastronomía", "direccion": "Cra. 45 #68S-58" }, "geometry": { "type": "Point", "coordinates": [-75.6154297, 6.151473] } },
    { "type": "Feature", "properties": { "nombre": "Mayorca Mall", "municipio": "Sabaneta", "categoria": "familiar", "tipo": "Centro comercial con cine y eventos", "direccion": "Cl. 51 Sur #48-57" }, "geometry": { "type": "Point", "coordinates": [-75.6055153, 6.1618172] } },
    { "type": "Feature", "properties": { "nombre": "Alcaldía de Sabaneta", "municipio": "Sabaneta", "categoria": "otros", "tipo": "Sede administrativa municipal", "direccion": "Cra. 45 #71 Sur-24" }, "geometry": { "type": "Point", "coordinates": [-75.6188465, 6.1495969] } },
    { "type": "Feature", "properties": { "nombre": "Parque Principal de La Estrella", "municipio": "La Estrella", "categoria": "familiar", "tipo": "Plaza central y eventos comunitarios", "direccion": "Cl. 80 Sur #60-10" }, "geometry": { "type": "Point", "coordinates": [-75.6433, 6.1578] } },
    { "type": "Feature", "properties": { "nombre": "Parque Principal de Caldas", "municipio": "Caldas", "categoria": "familiar", "tipo": "Plaza principal y eventos locales", "direccion": "Cl. 130 Sur #50-20" }, "geometry": { "type": "Point", "coordinates": [-75.6358, 6.0911] } }
  ]
}